SOKRAT                  
1 44404U 19038U   22173.36959158  .00007446  00000+0  37516-3 0  9993
2 44404  97.6341 142.8380 0021738 114.7892 245.5606 15.17266757163765
LUCKY-7                 
1 44406U 19038W   22173.47321434  .00005465  00000+0  28937-3 0  9993
2 44406  97.6379 142.5058 0024506 111.7180 248.6664 15.15585760163720
D-STAR ONE (EXOCONNECT) 
1 44410U 19038AA  22173.45930478  .00013085  00000+0  60864-3 0  9992
2 44410  97.6294 143.8101 0020924 109.6300 250.7195 15.19891557163859
NARSSCUBE-2             
1 44415U 19022E   22173.33722998  .00008395  00000+0  25533-3 0  9995
2 44415  51.6396  94.0647 0011721  75.4181 284.8100 15.34819699160867
DUCHIFAT-3              
1 44854U 19089C   22173.82799000  .00003674  00000+0  28729-3 0  9992
2 44854  36.9656  68.4806 0009638 269.9366  90.0269 15.01116243138744
OPS-SAT                 
1 44878U 19092F   22173.46127536  .00008066  00000+0  37556-3 0  9999
2 44878  97.4803 357.3679 0011319 328.1804  31.8746 15.20132180138953
FLORIPASAT-1            
1 44885U 19093G   22173.80944353  .00002061  00000+0  25870-3 0  9995
2 44885  97.8970 254.2352 0014861 169.3920 190.7602 14.83162237135645
HUSKYSAT-1 (HO-107)     
1 45119U 19071J   22173.03223961  .00021354  00000+0  45678-3 0  9996
2 45119  51.6396  36.9094 0009873 180.4998 179.5981 15.44705816134075
BY70-2                  
1 45857U 20042B   22173.83562938  .00007204  00000+0  96004-3 0  9990
2 45857  97.9544 250.6241 0012485 101.1235 259.1367 14.79879808106250
SALSAT                  
1 46495U 20068K   22173.48375968  .00001419  00000+0  10556-3 0  9993
2 46495  97.7294 114.7857 0014509 259.5762 100.3829 15.04536842 94943
NETSAT-4                
1 46504U 20068U   22173.56735180  .00003507  00000+0  26170-3 0  9998
2 46504  97.7250 113.3461 0011072 314.9716  45.0584 15.03468804 94819
NETSAT-3                
1 46505U 20068V   22173.58284687  .00003950  00000+0  29461-3 0  9990
2 46505  97.7233 113.2829 0010875 323.3634  36.6869 15.03414251 94821
NETSAT-1                
1 46506U 20068W   22173.59926189  .00002270  00000+0  17161-3 0  9990
2 46506  97.7257 113.2340 0009785 339.6216  20.4598 15.03348993 94829
NETSAT-2                
1 46507U 20068X   22173.54228398  .00002782  00000+0  20933-3 0  9992
2 46507  97.7252 113.1689 0008815 348.6629  11.4386 15.03337985 94768
BY70-3                  
1 46839U 20079N   22173.83521229  .00023745  00000+0  55358-3 0  9994
2 46839  97.1977 245.8586 0003777 318.3264 178.2291 15.42235982 91079
SPOC                    
1 46921U 98067RR  22173.60327478  .02121219  11922-4  90403-3 0  9990
2 46921  51.6179 258.5268 0012116 330.4584  29.5749 16.21872260 92830
NEUTRON-1               
1 46923U 98067RT  22173.53121854  .02089295  11873-4  10361-2 0  9990
2 46923  51.6184 259.5684 0013616 337.9572  22.0859 16.19915217 92855
UVSQ-SAT                
1 47438U 21006AB  22173.42942072  .00005547  00000+0  29395-3 0  9991
2 47438  97.4369 232.3375 0010292 254.3562 105.6536 15.15751674 78038
SOMP2B                  
1 47445U 21006AJ  22173.42870615  .00005245  00000+0  28067-3 0  9992
2 47445  97.4342 231.9990 0009899 259.2237 100.7881 15.15433675 78025
TSURU                   
1 47927U 98067SD  22173.41024400  .00590965  16901-3  10281-2 0  9997
2 47927  51.6270 274.6280 0012753 330.1557  29.8724 16.01458351 72592
MAYA-2                  
1 47929U 98067SF  22173.61246877  .00538148  13868-3  99243-3 0  9995
2 47929  51.6263 273.7288 0012301 330.0932  29.9374 16.00471680 72589
GUARANISAT-1            
1 47931U 98067SH  22173.76791042  .00616009  18530-3  10329-2 0  9994
2 47931  51.6246 272.5199 0012746 332.2308  27.8021 16.02084040 72651
DIY-1 (ARDUIQUBE)       
1 47963U 21022AH  22173.37080931  .00014206  00000+0  79016-3 0  9990
2 47963  97.5319  74.6726 0019121 112.1111 248.2152 15.13620280 67699
